[{"OBJECT_NAME":"STARLINK-34870","OBJECT_ID":"2025-190V","EPOCH":"2026-03-09T13:04:14.667744","MEAN_MOTION":15.30206961,"ECCENTRICITY":0.00013632,"INCLINATION":53.1593,"RA_OF_ASC_NODE":168.8039,"ARG_OF_PERICENTER":100.7212,"MEAN_ANOMALY":259.3943,"EPHEMERIS_TYPE":0,"CLASSIFICATION_TYPE":"U","NORAD_CAT_ID":65370,"ELEMENT_SET_NO":999,"REV_AT_EPOCH":2926,"BSTAR":0.0010086295,"MEAN_MOTION_DOT":0.00029639,"MEAN_MOTION_DDOT":0},{"OBJECT_NAME":"COSMOS 2251 DEB","OBJECT_ID":"1993-036BAQ","EPOCH":"2026-03-02T18:09:22.308480","MEAN_MOTION":15.08453793,"ECCENTRICITY":0.0108476,"INCLINATION":73.8355,"RA_OF_ASC_NODE":183.1226,"ARG_OF_PERICENTER":266.0547,"MEAN_ANOMALY":92.8237,"EPHEMERIS_TYPE":0,"CLASSIFICATION_TYPE":"U","NORAD_CAT_ID":36441,"ELEMENT_SET_NO":999,"REV_AT_EPOCH":88171,"BSTAR":0.00067126775,"MEAN_MOTION_DOT":0.00011967,"MEAN_MOTION_DDOT":0}]
